{"type": "FeatureCollection", "features": [ {"type": "Feature", "properties": {"norad_id": 40701, "name": "GAOFEN-8", "group": "resource", "lat": -60.80469637423839, "lon": -173.26162892417764, "alt_km": 464.94059731766265, "timestamp": "2025-12-20T05:41:49.675478+00:00", "meta": {"OBJECT_NAME": "GAOFEN-8", "OBJECT_ID": "2015-030A", "EPOCH": "2025-12-19T22:09:43.933824", "MEAN_MOTION": 15.38783737, "ECCENTRICITY": 0.00118921, "INCLINATION": 97.6902, "RA_OF_ASC_NODE": 172.4147, "ARG_OF_PERICENTER": 113.6641, "MEAN_ANOMALY": 246.5853, "EPHEMERIS_TYPE": 0, "CLASSIFICATION_TYPE": "U", "NORAD_CAT_ID": 40701, "ELEMENT_SET_NO": 999, "REV_AT_EPOCH": 58381, "BSTAR": 0.00044023853, "MEAN_MOTION_DOT": 0.00016848, "MEAN_MOTION_DDOT": 0}, "tle": {"line1": "1 40701U 15030A   25353.92342516  .00016848  00000+0  44024-3 0  9994", "line2": "2 40701  97.6902 172.4147 0011892 113.6641 246.5853 15.38783737583816"}}, "geometry": {"type": "Point", "coordinates": [-173.26162892417764, -60.80469637423839]}}, {"type": "Feature", "properties": {"norad_id": 40718, "name": "CARBONITE 1 (CBNT-1)", "group": "resource", "lat": 16.965976380278168, "lon": -2.7026714556811275, "alt_km": 610.7375072064924, "timestamp": "2025-12-20T05:41:49.675489+00:00", "meta": {"OBJECT_NAME": "CARBONITE 1 (CBNT-1)", "OBJECT_ID": "2015-032D", "EPOCH": "2025-12-19T22:29:14.944992", "MEAN_MOTION": 14.82777585, "ECCENTRICITY": 0.00149518, "INCLINATION": 97.6394, "RA_OF_ASC_NODE": 174.6635, "ARG_OF_PERICENTER": 157.8528, "MEAN_ANOMALY": 202.3335, "EPHEMERIS_TYPE": 0, "CLASSIFICATION_TYPE": "U", "NORAD_CAT_ID": 40718, "ELEMENT_SET_NO": 999, "REV_AT_EPOCH": 56277, "BSTAR": 0.00029893883, "MEAN_MOTION_DOT": 2.37e-05, "MEAN_MOTION_DDOT": 0}, "tle": {"line1": "1 40718U 15032D   25353.93697853  .00002370  00000+0  29894-3 0  9995", "line2": "2 40718  97.6394 174.6635 0014951 157.8528 202.3335 14.82777585562777"}}, "geometry": {"type": "Point", "coordinates": [-2.7026714556811275, 16.965976380278168]}}, {"type": "Feature", "properties": {"norad_id": 40878, "name": "YAOGAN-27", "group": "resource", "lat": 47.75709480335725, "lon": -27.801079493028915, "alt_km": 1199.8531095241196, "timestamp": "2025-12-20T05:41:49.675499+00:00", "meta": {"OBJECT_NAME": "YAOGAN-27", "OBJECT_ID": "2015-040A", "EPOCH": "2025-12-19T22:09:07.251840", "MEAN_MOTION": 13.1606065, "ECCENTRICITY": 0.00075909, "INCLINATION": 100.1006, "RA_OF_ASC_NODE": 343.2181, "ARG_OF_PERICENTER": 268.8332, "MEAN_ANOMALY": 91.1912, "EPHEMERIS_TYPE": 0, "CLASSIFICATION_TYPE": "U", "NORAD_CAT_ID": 40878, "ELEMENT_SET_NO": 999, "REV_AT_EPOCH": 49408, "BSTAR": -0.00065979375, "MEAN_MOTION_DOT": -2.93e-06, "MEAN_MOTION_DDOT": 0}, "tle": {"line1": "1 40878U 15040A   25353.92300060 -.00000293  00000+0 -65979-3 0  9999", "line2": "2 40878 100.1006 343.2181 0007590 268.8332  91.1912 13.16060650494088"}}, "geometry": {"type": "Point", "coordinates": [-27.801079493028915, 47.75709480335725]}}, {"type": "Feature", "properties": {"norad_id": 40894, "name": "GAOFEN-9 01", "group": "resource", "lat": 73.11834358818271, "lon": 6.5676721214905065, "alt_km": 606.2762570183177, "timestamp": "2025-12-20T05:41:49.675510+00:00", "meta": {"OBJECT_NAME": "GAOFEN-9 01", "OBJECT_ID": "2015-047A", "EPOCH": "2025-12-19T22:52:56.065152", "MEAN_MOTION": 14.82438669, "ECCENTRICITY": 0.00278129, "INCLINATION": 97.6533, "RA_OF_ASC_NODE": 32.5972, "ARG_OF_PERICENTER": 11.1374, "MEAN_ANOMALY": 349.0449, "EPHEMERIS_TYPE": 0, "CLASSIFICATION_TYPE": "U", "NORAD_CAT_ID": 40894, "ELEMENT_SET_NO": 999, "REV_AT_EPOCH": 55363, "BSTAR": 0.00010379105, "MEAN_MOTION_DOT": 7.86e-06, "MEAN_MOTION_DDOT": 0}, "tle": {"line1": "1 40894U 15047A   25353.95342668  .00000786  00000+0  10379-3 0  9996", "line2": "2 40894  97.6533  32.5972 0027812  11.1374 349.0449 14.82438669553631"}}, "geometry": {"type": "Point", "coordinates": [6.5676721214905065, 73.11834358818271]}}, {"type": "Feature", "properties": {"norad_id": 41026, "name": "YAOGAN-28", "group": "resource", "lat": -79.66005105117557, "lon": 176.30616869860188, "alt_km": 508.39159871394713, "timestamp": "2025-12-20T05:41:49.675520+00:00", "meta": {"OBJECT_NAME": "YAOGAN-28", "OBJECT_ID": "2015-064A", "EPOCH": "2025-12-19T22:10:59.608128", "MEAN_MOTION": 15.24463093, "ECCENTRICITY": 0.0012612, "INCLINATION": 97.2809, "RA_OF_ASC_NODE": 131.5143, "ARG_OF_PERICENTER": 103.1502, "MEAN_ANOMALY": 257.1144, "EPHEMERIS_TYPE": 0, "CLASSIFICATION_TYPE": "U", "NORAD_CAT_ID": 41026, "ELEMENT_SET_NO": 999, "REV_AT_EPOCH": 56334, "BSTAR": 0.00023856578, "MEAN_MOTION_DOT": 5.801e-05, "MEAN_MOTION_DDOT": 0}, "tle": {"line1": "1 41026U 15064A   25353.92430102  .00005801  00000+0  23857-3 0  9999", "line2": "2 41026  97.2809 131.5143 0012612 103.1502 257.1144 15.24463093563344"}}, "geometry": {"type": "Point", "coordinates": [176.30616869860188, -79.66005105117557]}}, {"type": "Feature", "properties": {"norad_id": 41038, "name": "YAOGAN-29", "group": "resource", "lat": -24.874169137537017, "lon": 21.182092299390714, "alt_km": 626.1365234637733, "timestamp": "2025-12-20T05:41:49.675531+00:00", "meta": {"OBJECT_NAME": "YAOGAN-29", "OBJECT_ID": "2015-069A", "EPOCH": "2025-12-19T23:19:56.900640", "MEAN_MOTION": 14.8289176, "ECCENTRICITY": 4.817e-05, "INCLINATION": 98.0213, "RA_OF_ASC_NODE": 17.1674, "ARG_OF_PERICENTER": 177.3167, "MEAN_ANOMALY": 182.8049, "EPHEMERIS_TYPE": 0, "CLASSIFICATION_TYPE": "U", "NORAD_CAT_ID": 41038, "ELEMENT_SET_NO": 999, "REV_AT_EPOCH": 54406, "BSTAR": 0.00010904431, "MEAN_MOTION_DOT": 8.3e-06, "MEAN_MOTION_DDOT": 0}, "tle": {"line1": "1 41038U 15069A   25353.97218635  .00000830  00000+0  10904-3 0  9993", "line2": "2 41038  98.0213  17.1674 0000481 177.3167 182.8049 14.82891760544069"}}, "geometry": {"type": "Point", "coordinates": [21.182092299390714, -24.874169137537017]}}, {"type": "Feature", "properties": {"norad_id": 41167, "name": "KENT RIDGE 1", "group": "resource", "lat": -10.65492684160766, "lon": 110.78382767561675, "alt_km": 497.98274062784003, "timestamp": "2025-12-20T05:41:49.675542+00:00", "meta": {"OBJECT_NAME": "KENT RIDGE 1", "OBJECT_ID": "2015-077B", "EPOCH": "2025-12-19T15:44:19.065408", "MEAN_MOTION": 15.21687, "ECCENTRICITY": 0.0008521, "INCLINATION": 14.9781, "RA_OF_ASC_NODE": 159.8192, "ARG_OF_PERICENTER": 228.6, "MEAN_ANOMALY": 131.3589, "EPHEMERIS_TYPE": 0, "CLASSIFICATION_TYPE": "U", "NORAD_CAT_ID": 41167, "ELEMENT_SET_NO": 999, "REV_AT_EPOCH": 55369, "BSTAR": 0.00012437, "MEAN_MOTION_DOT": 3.652e-05, "MEAN_MOTION_DDOT": 0}, "tle": {"line1": "1 41167U 15077B   25353.65577622  .00003652  00000+0  12437-3 0  9992", "line2": "2 41167  14.9781 159.8192 0008521 228.6000 131.3589 15.21687000553698"}}, "geometry": {"type": "Point", "coordinates": [110.78382767561675, -10.65492684160766]}}, {"type": "Feature", "properties": {"norad_id": 41194, "name": "GAOFEN-4", "group": "resource", "lat": -0.0857137411250127, "lon": -79.72984893716374, "alt_km": 35789.003678141285, "timestamp": "2025-12-20T05:41:49.675555+00:00", "meta": {"OBJECT_NAME": "GAOFEN-4", "OBJECT_ID": "2015-083A", "EPOCH": "2025-12-19T15:27:26.627616", "MEAN_MOTION": 1.00273138, "ECCENTRICITY": 0.0002945, "INCLINATION": 0.1878, "RA_OF_ASC_NODE": 81.7841, "ARG_OF_PERICENTER": 93.4275, "MEAN_ANOMALY": 250.8523, "EPHEMERIS_TYPE": 0, "CLASSIFICATION_TYPE": "U", "NORAD_CAT_ID": 41194, "ELEMENT_SET_NO": 999, "REV_AT_EPOCH": 3672, "BSTAR": 0, "MEAN_MOTION_DOT": -3.11e-06, "MEAN_MOTION_DDOT": 0}, "tle": {"line1": "1 41194U 15083A   25353.64405819 -.00000311  00000+0  00000+0 0  9995", "line2": "2 41194   0.1878  81.7841 0002945  93.4275 250.8523  1.00273138 36722"}}, "geometry": {"type": "Point", "coordinates": [-79.72984893716374, -0.0857137411250127]}}, {"type": "Feature", "properties": {"norad_id": 41240, "name": "JASON-3", "group": "resource", "lat": 33.32351008987625, "lon": -54.936786425845156, "alt_km": 1311.3234680637834, "timestamp": "2025-12-20T05:41:49.675566+00:00", "meta": {"OBJECT_NAME": "JASON-3", "OBJECT_ID": "2016-002A", "EPOCH": "2025-12-19T21:30:01.113408", "MEAN_MOTION": 12.87626871, "ECCENTRICITY": 0.00072145, "INCLINATION": 66.0398, "RA_OF_ASC_NODE": 142.7791, "ARG_OF_PERICENTER": 271.2454, "MEAN_ANOMALY": 88.7738, "EPHEMERIS_TYPE": 0, "CLASSIFICATION_TYPE": "U", "NORAD_CAT_ID": 41240, "ELEMENT_SET_NO": 999, "REV_AT_EPOCH": 46416, "BSTAR": -3.457952e-06, "MEAN_MOTION_DOT": -6.3e-07, "MEAN_MOTION_DDOT": 0}, "tle": {"line1": "1 41240U 16002A   25353.89584622 -.00000063  00000+0 -34580-5 0  9997", "line2": "2 41240  66.0398 142.7791 0007214 271.2454  88.7738 12.87626871464165"}}, "geometry": {"type": "Point", "coordinates": [-54.936786425845156, 33.32351008987625]}}, {"type": "Feature", "properties": {"norad_id": 41335, "name": "SENTINEL-3A", "group": "resource", "lat": -38.62817193804184, "lon": 66.11596875818782, "alt_km": 809.5084992166685, "timestamp": "2025-12-20T05:41:49.675577+00:00", "meta": {"OBJECT_NAME": "SENTINEL-3A", "OBJECT_ID": "2016-011A", "EPOCH": "2025-12-19T21:27:52.916544", "MEAN_MOTION": 14.26733263, "ECCENTRICITY": 9.07e-05, "INCLINATION": 98.6305, "RA_OF_ASC_NODE": 58.8069, "ARG_OF_PERICENTER": 93.6014, "MEAN_ANOMALY": 266.527, "EPHEMERIS_TYPE": 0, "CLASSIFICATION_TYPE": "U", "NORAD_CAT_ID": 41335, "ELEMENT_SET_NO": 999, "REV_AT_EPOCH": 51249, "BSTAR": 5.9500005e-05, "MEAN_MOTION_DOT": 1e-06, "MEAN_MOTION_DDOT": 0}, "tle": {"line1": "1 41335U 16011A   25353.89436246  .00000100  00000+0  59500-4 0  9998", "line2": "2 41335  98.6305  58.8069 0000907  93.6014 266.5270 14.26733263512490"}}, "geometry": {"type": "Point", "coordinates": [66.11596875818782, -38.62817193804184]}}]}